STARLINK-6067           
1 56816U 23078BB  24224.72110154  .00003351  00000+0  28843-3 0  9990
2 56816  70.0031 333.9578 0002904 272.6078  87.4749 14.98336634 67317
STARLINK-5982           
1 56817U 23078BC  24224.76305795  .00001111  00000+0  10087-3 0  9995
2 56817  70.0028 353.9752 0002887 268.6229  91.4600 14.98336215 66824
STARLINK-6028           
1 56818U 23078BD  24224.81311769  .00003727  00000+0  31980-3 0  9990
2 56818  70.0027 353.7474 0002789 273.8782  86.2058 14.98349495 66830
STARLINK-30119          
1 56823U 23079A   24224.72874080  .00000947  00000+0  85188-4 0  9998
2 56823  43.0064 351.7020 0001097 261.1169  98.9550 15.02531452 66066
STARLINK-30120          
1 56824U 23079B   24224.79187355  .00002696  00000+0  21449-3 0  9990
2 56824  43.0027 351.3110 0001311 277.7303  82.3391 15.02549417 66086
STARLINK-30084          
1 56825U 23079C   24224.72205801  .00002721  00000+0  21633-3 0  9995
2 56825  43.0042 351.6492 0001254 268.9471  91.1228 15.02555912 66066
STARLINK-30114          
1 56826U 23079D   24224.73869247  .00002966  00000+0  23448-3 0  9994
2 56826  43.0034 351.5840 0001054 264.2288  95.8434 15.02551228 66074
STARLINK-30151          
1 56827U 23079E   24223.78472827  .00000429  00000+0  46850-4 0  9998
2 56827  43.0063 356.6443 0001217 267.7335  92.3368 15.02535913 66255
STARLINK-30152          
1 56828U 23079F   24224.71208059  .00000793  00000+0  73776-4 0  9998
2 56828  43.0044 351.5738 0001063 275.1749  84.8972 15.02548766 66063
STARLINK-30128          
1 56832U 23079K   24224.55085052  .00007096  00000+0  53969-3 0  9995
2 56832  43.0034 326.5197 0001289 274.6895  85.3801 15.02546154 66330
STARLINK-30131          
1 56833U 23079L   24224.73920159 -.00002319  00000+0 -15663-3 0  9996
2 56833  43.0030 325.5126 0000899 277.1042  82.9698 15.02543302 66379
STARLINK-30069          
1 56834U 23079M   24224.77523710  .00000856  00000+0  78421-4 0  9997
2 56834  43.0039 351.1843 0001572 277.7406  82.3258 15.02533419 66081
STARLINK-30144          
1 56835U 23079N   24224.77190584  .00001409  00000+0  11933-3 0  9996
2 56835  43.0023 351.1635 0001414 254.0427 106.0260 15.02541039 66073
STARLINK-30142          
1 56836U 23079P   24223.77140483 -.00000048  00000+0  11514-4 0  9994
2 56836  43.0040 356.5569 0001500 287.9649  72.1030 15.02547406 65920
STARLINK-30133          
1 56837U 23079Q   24224.36637325  .00003264  00000+0  25656-3 0  9990
2 56837  43.0050 353.2716 0003046 279.7359  80.3140 15.02542407 66014
STARLINK-30123          
1 56838U 23079R   24224.74203123  .00005528  00000+0  42383-3 0  9999
2 56838  43.0037 351.6753 0001301 261.2538  98.8157 15.02551307 66066
STARLINK-30076          
1 56839U 23079S   24224.76191150  .00002696  00000+0  21452-3 0  9995
2 56839  43.0031 351.0724 0001058 245.5275 114.5457 15.02545113 66073
STARLINK-30073          
1 56840U 23079T   24224.67911276  .00004020  00000+0  31217-3 0  9999
2 56840  43.0035 339.0388 0001162 282.1478  77.9234 15.02574815 66200
STARLINK-30078          
1 56841U 23079U   24224.82506130  .00028482  00000+0  21135-2 0  9991
2 56841  43.0031 350.7018 0001040 248.0516 112.0215 15.02562303 66081
STARLINK-30135          
1 56842U 23079V   24224.46613468  .00006945  00000+0  52858-3 0  9992
2 56842  43.0012 353.0677 0001031 242.9495 117.1242 15.02542678 66020
STARLINK-30137          
1 56843U 23079W   24224.78520168  .00000896  00000+0  81376-4 0  9999
2 56843  43.0045 351.1636 0001093 265.5777  94.4941 15.02549469 66076
STARLINK-30136          
1 56844U 23079X   24224.74536996  .00008829  00000+0  66763-3 0  9998
2 56844  43.0032 351.7156 0001035 268.0170  92.0553 15.02547857 66068
STARLINK-6206           
1 56876U 23083A   24224.70830043  .00001761  00000+0  14542-3 0  9990
2 56876  43.0055 326.4725 0001465 281.6518  78.4160 15.02527636 64370
STARLINK-6209           
1 56877U 23083B   24224.56757020 -.00002854  00000+0 -19626-3 0  9992
2 56877  43.0022 327.1290 0001255 270.8824  89.1875 15.02542331 64356
STARLINK-6182           
1 56878U 23083C   24224.30831411  .00000929  00000+0  83829-4 0  9998
2 56878  42.9993 328.6207 0001018 194.6470 165.4343 15.02533299 64310
STARLINK-5707           
1 56879U 23083D   24224.57090931 -.00000895  00000+0 -51193-4 0  9995
2 56879  43.0057 327.1557 0003051 271.5123  88.5370 15.02517939 64357
STARLINK-6177           
1 56880U 23083E   24224.69386239  .00001717  00000+0  14209-3 0  9997
2 56880  43.0008 326.3595 0000824 253.9180 106.1571 15.02540702 64376
STARLINK-5853           
1 56881U 23083F   24224.56869191 -.00002341  00000+0 -15839-3 0  9993
2 56881  43.0018 327.1372 0001012 268.9953  91.0774 15.02513270 64359
STARLINK-6175           
1 56882U 23083G   24224.62183564  .00001801  00000+0  14837-3 0  9999
2 56882  43.0020 326.6809 0001240 246.9003 113.1709 15.02540520 64360
STARLINK-6171           
1 56883U 23083H   24224.63183554  .00012722  00000+0  95558-3 0  9993
2 56883  42.9994 326.7509 0000913 165.9553 194.1314 15.02517877 64363
STARLINK-5515           
1 56884U 23083J   24224.74813637  .00003054  00000+0  24107-3 0  9998
2 56884  43.0047 325.9096 0001313 263.3271  96.7422 15.02527792 64388
STARLINK-5095           
1 56885U 23083K   24224.56201676  .00005721  00000+0  43813-3 0  9991
2 56885  43.0026 327.0839 0001170 235.1209 124.9523 15.02542337 64358
STARLINK-5496           
1 56886U 23083L   24224.68054838 -.00000209  00000+0 -43007-6 0  9997
2 56886  43.0020 326.2604 0001228 270.2691  89.8011 15.02532442 64372
STARLINK-6180           
1 56887U 23083M   24224.55202789 -.00003210  00000+0 -22272-3 0  9997
2 56887  43.0027 327.0176 0001588 267.0457  93.0204 15.02528207 64359
STARLINK-6181           
1 56888U 23083N   24224.66721951  .00005925  00000+0  45315-3 0  9993
2 56888  43.0014 326.1546 0001424 260.9571  99.1110 15.02547246 64374
STARLINK-6169           
1 56889U 23083P   24224.74369584  .00005010  00000+0  38561-3 0  9993
2 56889  43.0043 325.8745 0001623 274.1253  85.9403 15.02542542 64382
STARLINK-5528           
1 56890U 23083Q   24224.00355595  .00000505  00000+0  52422-4 0  9998
2 56890  43.0035 329.7795 0001100 275.6462  84.4254 15.02530695 64273
STARLINK-6213           
1 56891U 23083R   24224.34147833 -.00000707  00000+0 -37216-4 0  9990
2 56891  43.0052 328.0110 0003499 260.6432  99.4015 15.02536346 64326
STARLINK-6219           
1 56892U 23083S   24224.72704620 -.00002099  00000+0 -14037-3 0  9997
2 56892  43.0016 325.7447 0000963 278.9503  81.1231 15.02529444 64383
STARLINK-6216           
1 56893U 23083T   24224.67055750 -.00000033  00000+0  12661-4 0  9992
2 56893  43.0015 326.1850 0001190 283.7984  76.2725 15.02530847 64377
STARLINK-6144           
1 56894U 23083U   24224.39576720 -.00001445  00000+0 -91888-4 0  9994
2 56894  43.0054 327.5591 0002751 259.5240 100.5293 15.02524137 64330
STARLINK-6208           
1 56895U 23083V   24224.39797638 -.00006154  00000+0 -44091-3 0  9993
2 56895  43.0073 327.5741 0003265 256.4592 103.5887 15.02525790 65133
STARLINK-6202           
1 56896U 23083W   24224.58741739  .00007205  00000+0  54763-3 0  9999
2 56896  43.0004 326.4151 0001420 271.2310  88.8369 15.02555629 64363
STARLINK-6200           
1 56897U 23083X   24224.45780343 -.00006727  00000+0 -48306-3 0  9996
2 56897  43.0053 327.1661 0000870 274.1597  85.9146 15.02558836 64341
STARLINK-6205           
1 56898U 23083Y   24223.98246715  .00008833  00000+0  66819-3 0  9991
2 56898  43.0047 329.6204 0000890 289.3791  70.6955 15.02531349 64272
STARLINK-6203           
1 56899U 23083Z   24224.71703803  .00004572  00000+0  35307-3 0  9994
2 56899  43.0014 325.6647 0000830 272.9443  87.1304 15.02556877 64386
STARLINK-6207           
1 56900U 23083AA  24224.51799183  .00001535  00000+0  12863-3 0  9999
2 56900  42.9963 314.6135 0000990 222.8194 137.2571 15.02541666 64499
STARLINK-6185           
1 56901U 23083AB  24224.64502739  .00000798  00000+0  74178-4 0  9991
2 56901  43.0032 325.9917 0001441 278.6961  81.3718 15.02536069 64375
STARLINK-6195           
1 56902U 23083AC  24224.51466566  .00001145  00000+0  99787-4 0  9995
2 56902  43.0011 314.5921 0001037 238.8614 121.2126 15.02541264 64499
STARLINK-6192           
1 56903U 23083AD  24224.71483376  .00001459  00000+0  12306-3 0  9995
2 56903  43.0011 325.6521 0001549 275.9862  84.0804 15.02532377 64386
STARLINK-6193           
1 56904U 23083AE  24224.55783565 -.00001620  00000+0 -10485-3 0  9999
2 56904  43.0033 314.0565 0002729 282.7206  77.3331 15.02528305 64500
STARLINK-6183           
1 56905U 23083AF  24224.51910933 -.00002118  00000+0 -14181-3 0  9997
2 56905  43.0023 314.6302 0001429 274.1775  85.8903 15.02529914 64491
STARLINK-6098           
1 56906U 23083AG  24224.37284637  .00000799  00000+0  74276-4 0  9990
2 56906  43.0095 315.2515 0003206 270.0107  90.0368 15.02510540 64479
STARLINK-6110           
1 56907U 23083AH  24224.64207962  .00000825  00000+0  76149-4 0  9998
2 56907  43.0041 313.8291 0001397 257.6747 102.3939 15.02525808 64515
STARLINK-6186           
1 56908U 23083AJ  24224.56561627 -.00000467  00000+0 -19528-4 0  9993
2 56908  43.0025 314.1146 0001548 277.0568  83.0098 15.02519631 64503
STARLINK-5999           
1 56909U 23083AK  24224.37949368  .00001870  00000+0  15351-3 0  9991
2 56909  43.0067 315.2965 0002820 263.8465  96.2056 15.02527122 64474
STARLINK-6179           
1 56910U 23083AL  24224.55894589  .00018443  00000+0  13767-2 0  9999
2 56910  43.0023 314.0637 0001672 266.5494  93.5157 15.02538021 64503
STARLINK-6116           
1 56911U 23083AM  24224.63763473  .00011302  00000+0  85023-3 0  9998
2 56911  43.0008 313.7955 0000820 259.5250 100.5499 15.02540739 64510
STARLINK-5805           
1 56912U 23083AN  24224.55561168  .00007579  00000+0  57532-3 0  9992
2 56912  43.0028 314.0330 0001310 267.9646  92.1047 15.02550513 64506
